OBJECT_NAME,OBJECT_ID,EPOCH,MEAN_MOTION,ECCENTRICITY,INCLINATION,RA_OF_ASC_NODE,ARG_OF_PERICENTER,MEAN_ANOMALY,EPHEMERIS_TYPE,CLASSIFICATION_TYPE,NORAD_CAT_ID,ELEMENT_SET_NO,REV_AT_EPOCH,BSTAR,MEAN_MOTION_DOT,MEAN_MOTION_DDOT
STARLINK-33924,2025-112D,2026-07-07T17:01:21.996768,15.05656646,.0001609,97.2824,237.9907,96.6006,263.5405,0,U,64149,999,6136,.17092E-3,.2411E-4,0
STARLINK-34209,2025-112E,2026-07-07T17:25:18.751008,15.05660285,.0003289,97.2834,238.1201,111.7917,248.3661,0,U,64150,999,6137,.27808E-3,.3959E-4,0
STARLINK-34338,2025-112F,2026-07-06T17:17:51.247392,15.05649682,.00026086,97.2831,237.1914,105.8595,254.2920,0,U,64151,999,6122,.13892931E-3,.1949E-4,0
STARLINK-34348,2025-112G,2026-07-07T16:25:30.266112,15.05646513,.0001189,97.2841,238.0246,108.0107,252.1251,0,U,64152,999,6136,.34485E-3,.4922E-4,0
STARLINK-34345,2025-112H,2026-07-07T16:13:31.539072,15.05661847,.0001137,97.2837,238.0370,115.2594,244.8752,0,U,64153,999,6136,.31288E-3,.4462E-4,0
STARLINK-33945,2025-112J,2026-07-07T17:38:07.977120,15.05652640,.0001179,97.2826,246.5924,79.5571,280.5789,0,U,64154,999,6192,.27397E-3,.3899E-4,0
STARLINK-34346,2025-112K,2026-07-06T15:58:06.587328,15.05640046,.00017397,97.2833,237.1206,104.0619,256.0802,0,U,64155,999,6121,.35361949E-3,.5048E-4,0
STARLINK-34277,2025-112L,2026-07-07T18:17:08.262816,15.05659537,.0001601,97.2841,238.0797,111.8986,248.2412,0,U,64156,999,6137,.33383E-3,.4765E-4,0
STARLINK-34166,2025-112N,2026-07-07T17:05:22.460928,15.05652236,.0001827,97.2824,237.9936,136.5200,223.6172,0,U,64158,999,6136,.24111E-3,.3424E-4,0
STARLINK-34344,2025-112P,2026-07-07T16:53:23.085024,15.05652843,.0001796,97.2835,238.0077,148.1232,212.0105,0,U,64159,999,6136,.48057E-4,.637E-5,0
STARLINK-34339,2025-112Q,2026-07-07T16:29:28.242816,15.05664227,.0001592,97.2845,238.0299,121.5399,238.5984,0,U,64160,999,6136,.32539E-3,.4643E-4,0
STARLINK-34341,2025-112R,2026-07-07T16:05:33.685728,15.05659127,.0002082,97.2836,238.0534,111.2302,248.9149,0,U,64161,999,6136,.29008E-3,.4132E-4,0
STARLINK-34317,2025-112S,2026-07-07T17:17:21.533568,15.05649062,.0001431,97.2832,238.1364,106.6600,253.4785,0,U,64162,999,6137,.26457E-3,.3763E-4,0
STARLINK-34340,2025-112T,2026-07-07T16:45:25.527168,15.05652367,.0001005,97.2825,238.0131,148.9433,211.1854,0,U,64163,999,6136,.26478E-3,.3766E-4,0
STARLINK-34263,2025-112U,2026-07-07T16:33:27.703008,15.05663313,.0002069,97.2843,238.0253,109.5998,250.5453,0,U,64164,999,6136,.33029E-3,.4714E-4,0
STARLINK-33793,2025-112V,2026-07-07T16:21:29.997216,15.05656596,.0001346,97.2843,238.0376,105.2255,254.9121,0,U,64165,999,6136,.15728E-3,.2214E-4,0
STARLINK-34313,2025-112W,2026-07-07T16:09:34.098048,15.05647833,.0001492,97.2845,238.0499,112.7157,247.4229,0,U,64166,999,6136,.36338E-3,.519E-4,0
STARLINK-34309,2025-112X,2026-07-07T17:33:17.506368,15.05657062,.0001649,97.2836,238.1234,97.9027,262.2387,0,U,64167,999,6137,.28651E-3,.4081E-4,0
STARLINK-34303,2025-112Y,2026-07-07T17:21:19.226016,15.05659533,.0001769,97.2827,238.1364,63.0305,297.1104,0,U,64168,999,6137,.16997E-3,.2397E-4,0
STARLINK-34175,2025-112Z,2026-07-07T16:57:22.946976,15.05654692,.0000863,97.2824,238.0008,96.7307,263.4019,0,U,64169,999,6136,.19612E-3,.2775E-4,0
STARLINK-34177,2025-113A,2026-07-06T11:19:17.452992,15.31697373,.00014292,53.1572,258.5285,70.0175,290.0980,0,U,64170,999,6326,.10636748E-2,.32785E-3,0
STARLINK-34228,2025-113B,2026-07-06T12:33:05.446080,15.31691693,.00014348,53.1594,258.1314,82.6444,277.4721,0,U,64171,999,6327,.9952623E-3,.30638E-3,0
STARLINK-34233,2025-113C,2026-07-06T10:32:20.579712,15.31727365,.00011627,53.1578,259.0307,93.4322,266.6812,0,U,64172,999,6325,.7212895E-3,.22103E-3,0
STARLINK-34172,2025-113D,2026-07-07T04:05:57.524352,15.31736361,.00016488,53.1585,255.0658,63.0471,297.0699,0,U,64173,999,6333,.85316074E-3,.26233E-3,0
STARLINK-34202,2025-113E,2026-07-07T04:51:03.422880,15.30224961,.00019818,53.1581,255.9653,98.0217,262.1008,0,U,64174,999,6336,.11662309E-3,.3099E-4,0
STARLINK-34231,2025-113F,2026-07-07T05:13:10.872480,15.31725847,.0001166,53.1569,255.3537,84.0464,276.0670,0,U,64175,999,6337,.77601208E-3,.23812E-3,0
STARLINK-34191,2025-113G,2026-07-07T05:02:08.049696,15.34426987,.00011623,53.1572,253.8868,77.5552,282.5580,0,U,64176,999,6339,.73831737E-3,.24672E-3,0
STARLINK-34164,2025-113H,2026-07-06T10:35:53.045952,15.30169920,.00011578,53.1567,259.7544,88.4438,271.6695,0,U,64177,999,6324,.80604977E-3,.23567E-3,0
STARLINK-34227,2025-113J,2026-07-06T10:07:00.719904,15.30182709,.00013162,53.1573,259.6258,79.7673,280.3476,0,U,64178,999,6324,.98490257E-3,.28909E-3,0
STARLINK-34194,2025-113K,2026-07-07T16:00:05.000256,15.34385413,.000177,53.1585,251.4551,67.9308,88.6823,0,U,64179,999,589,.11989E-2,.4033E-3,0
