STARLINK-33924          
1 64149U 25112D   26188.70928237  .00002411  00000+0  17092-3 0  9997
2 64149  97.2824 237.9907 0001609  96.6006 263.5405 15.05656646 61363
STARLINK-34209          
1 64150U 25112E   26188.72591147  .00003959  00000+0  27808-3 0  9991
2 64150  97.2834 238.1201 0003289 111.7917 248.3661 15.05660285 61372
STARLINK-34338          
1 64151U 25112F   26187.72073203  .00001949  00000+0  13893-3 0  9995
2 64151  97.2831 237.1914 0002608 105.8595 254.2920 15.05649682 61226
STARLINK-34348          
1 64152U 25112G   26188.68437808  .00004922  00000+0  34485-3 0  9991
2 64152  97.2841 238.0246 0001189 108.0107 252.1251 15.05646513 61362
STARLINK-34345          
1 64153U 25112H   26188.67605948  .00004462  00000+0  31288-3 0  9990
2 64153  97.2837 238.0370 0001137 115.2594 244.8752 15.05661847 61360
STARLINK-33945          
1 64154U 25112J   26188.73481455  .00003899  00000+0  27397-3 0  9992
2 64154  97.2826 246.5924 0001179  79.5571 280.5789 15.05652640 61921
STARLINK-34346          
1 64155U 25112K   26187.66535402  .00005048  00000+0  35362-3 0  9995
2 64155  97.2833 237.1206 0001739 104.0619 256.0802 15.05640046 61211
STARLINK-34277          
1 64156U 25112L   26188.76190119  .00004765  00000+0  33383-3 0  9996
2 64156  97.2841 238.0797 0001601 111.8986 248.2412 15.05659537 61379
STARLINK-34166          
1 64158U 25112N   26188.71206552  .00003424  00000+0  24111-3 0  9992
2 64158  97.2824 237.9936 0001827 136.5200 223.6172 15.05652236 61366
STARLINK-34344          
1 64159U 25112P   26188.70373941  .00000637  00000+0  48057-4 0  9998
2 64159  97.2835 238.0077 0001796 148.1232 212.0105 15.05652843 61368
STARLINK-34339          
1 64160U 25112Q   26188.68713244  .00004643  00000+0  32539-3 0  9999
2 64160  97.2845 238.0299 0001592 121.5399 238.5984 15.05664227 61367
STARLINK-34341          
1 64161U 25112R   26188.67052877  .00004132  00000+0  29008-3 0  9997
2 64161  97.2836 238.0534 0002082 111.2302 248.9149 15.05659127 61366
STARLINK-34317          
1 64162U 25112S   26188.72038812  .00003763  00000+0  26457-3 0  9991
2 64162  97.2832 238.1364 0001431 106.6600 253.4785 15.05649062 61376
STARLINK-34340          
1 64163U 25112T   26188.69821212  .00003766  00000+0  26478-3 0  9998
2 64163  97.2825 238.0131 0001005 148.9433 211.1854 15.05652367 61369
STARLINK-34263          
1 64164U 25112U   26188.68990397  .00004714  00000+0  33029-3 0  9993
2 64164  97.2843 238.0253 0002069 109.5998 250.5453 15.05663313 61360
STARLINK-33793          
1 64165U 25112V   26188.68159719  .00002214  00000+0  15728-3 0  9998
2 64165  97.2843 238.0376 0001346 105.2255 254.9121 15.05656596 61368
STARLINK-34313          
1 64166U 25112W   26188.67331132  .00005190  00000+0  36338-3 0  9995
2 64166  97.2845 238.0499 0001492 112.7157 247.4229 15.05647833 61363
STARLINK-34309          
1 64167U 25112X   26188.73145262  .00004081  00000+0  28651-3 0  9997
2 64167  97.2836 238.1234 0001649  97.9027 262.2387 15.05657062 61372
STARLINK-34303          
1 64168U 25112Y   26188.72313919  .00002397  00000+0  16997-3 0  9991
2 64168  97.2827 238.1364 0001769  63.0305 297.1104 15.05659533 61372
STARLINK-34175          
1 64169U 25112Z   26188.70651559  .00002775  00000+0  19612-3 0  9992
2 64169  97.2824 238.0008 0000863  96.7307 263.4019 15.05654692 61364
STARLINK-34177          
1 64170U 25113A   26187.47172978  .00032785  00000+0  10637-2 0  9992
2 64170  53.1572 258.5285 0001429  70.0175 290.0980 15.31697373 63264
STARLINK-34228          
1 64171U 25113B   26187.52297970  .00030638  00000+0  99526-3 0  9999
2 64171  53.1594 258.1314 0001434  82.6444 277.4721 15.31691693 63274
STARLINK-34233          
1 64172U 25113C   26187.43912708  .00022103  00000+0  72129-3 0  9991
2 64172  53.1578 259.0307 0001162  93.4322 266.6812 15.31727365 63257
STARLINK-34172          
1 64173U 25113D   26188.17080468  .00026233  00000+0  85316-3 0  9993
2 64173  53.1585 255.0658 0001648  63.0471 297.0699 15.31736361 63334
STARLINK-34202          
1 64174U 25113E   26188.20212295  .00003099  00000+0  11662-3 0  9991
2 64174  53.1581 255.9653 0001981  98.0217 262.1008 15.30224961 63368
STARLINK-34231          
1 64175U 25113F   26188.21748695  .00023812  00000+0  77601-3 0  9991
2 64175  53.1569 255.3537 0001166  84.0464 276.0670 15.31725847 63374
STARLINK-34191          
1 64176U 25113G   26188.20981539  .00024672  00000+0  73832-3 0  9994
2 64176  53.1572 253.8868 0001162  77.5552 282.5580 15.34426987 63390
STARLINK-34164          
1 64177U 25113H   26187.44158618  .00023567  00000+0  80605-3 0  9992
2 64177  53.1567 259.7544 0001157  88.4438 271.6695 15.30169920 63246
STARLINK-34227          
1 64178U 25113J   26187.42153611  .00028909  00000+0  98490-3 0  9995
2 64178  53.1573 259.6258 0001316  79.7673 280.3476 15.30182709 63240
STARLINK-34194          
1 64179U 25113K   26188.66672454  .00040330  00000+0  11989-2 0  9993
2 64179  53.1585 251.4551 0001770  67.9308  88.6823 15.34385413  5891
